{"type": "FeatureCollection", "features": [ {"type": "Feature", "properties": {"norad_id": 30530, "name": "FENGYUN 1C DEB", "group": "fengyun-1c-debris", "lat": -69.24454391264342, "lon": -169.97728070269582, "alt_km": 829.3262884599171, "timestamp": "2025-12-20T18:51:31.991112+00:00", "meta": {"OBJECT_NAME": "FENGYUN 1C DEB", "OBJECT_ID": "1999-025AJU", "EPOCH": "2025-12-19T01:50:36.117024", "MEAN_MOTION": 14.36792477, "ECCENTRICITY": 0.0100352, "INCLINATION": 98.3956, "RA_OF_ASC_NODE": 31.2913, "ARG_OF_PERICENTER": 118.0445, "MEAN_ANOMALY": 297.5725, "EPHEMERIS_TYPE": 0, "CLASSIFICATION_TYPE": "U", "NORAD_CAT_ID": 30530, "ELEMENT_SET_NO": 999, "REV_AT_EPOCH": 98876, "BSTAR": 0.00017799341, "MEAN_MOTION_DOT": 5.13e-06, "MEAN_MOTION_DDOT": 0}, "tle": {"line1": "1 30530U 99025AJU 25353.07680691  .00000513  00000+0  17799-3 0  9995", "line2": "2 30530  98.3956  31.2913 0100352 118.0445 297.5725 14.36792477988761"}}, "geometry": {"type": "Point", "coordinates": [-169.97728070269582, -69.24454391264342]}}, {"type": "Feature", "properties": {"norad_id": 30531, "name": "FENGYUN 1C DEB", "group": "fengyun-1c-debris", "lat": -56.44635304934491, "lon": -155.9444634210129, "alt_km": 701.7905407596263, "timestamp": "2025-12-20T18:51:31.991121+00:00", "meta": {"OBJECT_NAME": "FENGYUN 1C DEB", "OBJECT_ID": "1999-025AJV", "EPOCH": "2025-12-19T11:55:26.526720", "MEAN_MOTION": 14.62117907, "ECCENTRICITY": 0.0027052, "INCLINATION": 102.3095, "RA_OF_ASC_NODE": 182.9218, "ARG_OF_PERICENTER": 187.9046, "MEAN_ANOMALY": 172.1717, "EPHEMERIS_TYPE": 0, "CLASSIFICATION_TYPE": "U", "NORAD_CAT_ID": 30531, "ELEMENT_SET_NO": 999, "REV_AT_EPOCH": 97794, "BSTAR": 0.0028333, "MEAN_MOTION_DOT": 0.00014264, "MEAN_MOTION_DDOT": 0}, "tle": {"line1": "1 30531U 99025AJV 25353.49683480  .00014264  00000+0  28333-2 0  9994", "line2": "2 30531 102.3095 182.9218 0027052 187.9046 172.1717 14.62117907977946"}}, "geometry": {"type": "Point", "coordinates": [-155.9444634210129, -56.44635304934491]}}, {"type": "Feature", "properties": {"norad_id": 30532, "name": "FENGYUN 1C DEB", "group": "fengyun-1c-debris", "lat": 13.441328790564617, "lon": -138.82372867528784, "alt_km": 468.9229330819853, "timestamp": "2025-12-20T18:51:31.991132+00:00", "meta": {"OBJECT_NAME": "FENGYUN 1C DEB", "OBJECT_ID": "1999-025AJW", "EPOCH": "2025-12-19T09:10:24.589056", "MEAN_MOTION": 15.29835677, "ECCENTRICITY": 0.0022215, "INCLINATION": 96.9605, "RA_OF_ASC_NODE": 38.1875, "ARG_OF_PERICENTER": 235.7427, "MEAN_ANOMALY": 124.1711, "EPHEMERIS_TYPE": 0, "CLASSIFICATION_TYPE": "U", "NORAD_CAT_ID": 30532, "ELEMENT_SET_NO": 999, "REV_AT_EPOCH": 97789, "BSTAR": 0.0082932, "MEAN_MOTION_DOT": 0.00248908, "MEAN_MOTION_DDOT": 0}, "tle": {"line1": "1 30532U 99025AJW 25353.38222904  .00248908  00000+0  82932-2 0  9992", "line2": "2 30532  96.9605  38.1875 0022215 235.7427 124.1711 15.29835677977894"}}, "geometry": {"type": "Point", "coordinates": [-138.82372867528784, 13.441328790564617]}}, {"type": "Feature", "properties": {"norad_id": 30533, "name": "FENGYUN 1C DEB", "group": "fengyun-1c-debris", "lat": 38.135667190187604, "lon": 117.02763861406287, "alt_km": 705.5160672912243, "timestamp": "2025-12-20T18:51:31.991141+00:00", "meta": {"OBJECT_NAME": "FENGYUN 1C DEB", "OBJECT_ID": "1999-025AJX", "EPOCH": "2025-12-18T22:40:11.811360", "MEAN_MOTION": 14.53966263, "ECCENTRICITY": 0.00818995, "INCLINATION": 98.8339, "RA_OF_ASC_NODE": 122.0989, "ARG_OF_PERICENTER": 130.6284, "MEAN_ANOMALY": 357.1459, "EPHEMERIS_TYPE": 0, "CLASSIFICATION_TYPE": "U", "NORAD_CAT_ID": 30533, "ELEMENT_SET_NO": 999, "REV_AT_EPOCH": 97911, "BSTAR": 0.0023736705, "MEAN_MOTION_DOT": 0.00010415, "MEAN_MOTION_DDOT": 0}, "tle": {"line1": "1 30533U 99025AJX 25352.94458115  .00010415  00000+0  23737-2 0  9997", "line2": "2 30533  98.8339 122.0989 0081899 130.6284 357.1459 14.53966263979112"}}, "geometry": {"type": "Point", "coordinates": [117.02763861406287, 38.135667190187604]}}, {"type": "Feature", "properties": {"norad_id": 30539, "name": "FENGYUN 1C DEB", "group": "fengyun-1c-debris", "lat": 12.035454320556559, "lon": 157.65718901038173, "alt_km": 698.9176574420089, "timestamp": "2025-12-20T18:51:31.991152+00:00", "meta": {"OBJECT_NAME": "FENGYUN 1C DEB", "OBJECT_ID": "1999-025AKD", "EPOCH": "2025-12-20T04:52:46.321824", "MEAN_MOTION": 14.55443921, "ECCENTRICITY": 0.01152789, "INCLINATION": 98.8807, "RA_OF_ASC_NODE": 335.1278, "ARG_OF_PERICENTER": 252.91, "MEAN_ANOMALY": 105.9442, "EPHEMERIS_TYPE": 0, "CLASSIFICATION_TYPE": "U", "NORAD_CAT_ID": 30539, "ELEMENT_SET_NO": 999, "REV_AT_EPOCH": 99474, "BSTAR": 0.00042080856, "MEAN_MOTION_DOT": 1.942e-05, "MEAN_MOTION_DDOT": 0}, "tle": {"line1": "1 30539U 99025AKD 25354.20331391  .00001942  00000+0  42081-3 0  9999", "line2": "2 30539  98.8807 335.1278 0115278 252.9100 105.9442 14.55443921994740"}}, "geometry": {"type": "Point", "coordinates": [157.65718901038173, 12.035454320556559]}}, {"type": "Feature", "properties": {"norad_id": 30540, "name": "FENGYUN 1C DEB", "group": "fengyun-1c-debris", "lat": 67.55836765358818, "lon": 81.07965021441157, "alt_km": 746.1046399763463, "timestamp": "2025-12-20T18:51:31.991162+00:00", "meta": {"OBJECT_NAME": "FENGYUN 1C DEB", "OBJECT_ID": "1999-025AKE", "EPOCH": "2025-12-20T14:05:45.082176", "MEAN_MOTION": 14.32346218, "ECCENTRICITY": 0.00508098, "INCLINATION": 98.8791, "RA_OF_ASC_NODE": 103.1165, "ARG_OF_PERICENTER": 38.7169, "MEAN_ANOMALY": 87.5621, "EPHEMERIS_TYPE": 0, "CLASSIFICATION_TYPE": "U", "NORAD_CAT_ID": 30540, "ELEMENT_SET_NO": 999, "REV_AT_EPOCH": 97398, "BSTAR": 0.0011528562, "MEAN_MOTION_DOT": 3.114e-05, "MEAN_MOTION_DDOT": 0}, "tle": {"line1": "1 30540U 99025AKE 25354.58732734  .00003114  00000+0  11529-2 0  9993", "line2": "2 30540  98.8791 103.1165 0050809  38.7169  87.5621 14.32346218973988"}}, "geometry": {"type": "Point", "coordinates": [81.07965021441157, 67.55836765358818]}}, {"type": "Feature", "properties": {"norad_id": 30541, "name": "FENGYUN 1C DEB", "group": "fengyun-1c-debris", "lat": -14.38364497508634, "lon": -141.0223386296742, "alt_km": 827.9870059507475, "timestamp": "2025-12-20T18:51:31.991172+00:00", "meta": {"OBJECT_NAME": "FENGYUN 1C DEB", "OBJECT_ID": "1999-025AKF", "EPOCH": "2025-12-20T09:30:44.957952", "MEAN_MOTION": 14.23086884, "ECCENTRICITY": 0.00178123, "INCLINATION": 98.6937, "RA_OF_ASC_NODE": 40.842, "ARG_OF_PERICENTER": 64.1133, "MEAN_ANOMALY": 296.1879, "EPHEMERIS_TYPE": 0, "CLASSIFICATION_TYPE": "U", "NORAD_CAT_ID": 30541, "ELEMENT_SET_NO": 999, "REV_AT_EPOCH": 97436, "BSTAR": 0.00081379434, "MEAN_MOTION_DOT": 1.795e-05, "MEAN_MOTION_DDOT": 0}, "tle": {"line1": "1 30541U 99025AKF 25354.39635368  .00001795  00000+0  81379-3 0  9992", "line2": "2 30541  98.6937  40.8420 0017812  64.1133 296.1879 14.23086884974367"}}, "geometry": {"type": "Point", "coordinates": [-141.0223386296742, -14.38364497508634]}}, {"type": "Feature", "properties": {"norad_id": 30542, "name": "FENGYUN 1C DEB", "group": "fengyun-1c-debris", "lat": -43.59633596952637, "lon": 31.77340416056505, "alt_km": 856.6668314101153, "timestamp": "2025-12-20T18:51:31.991182+00:00", "meta": {"OBJECT_NAME": "FENGYUN 1C DEB", "OBJECT_ID": "1999-025AKG", "EPOCH": "2025-12-20T00:34:16.826304", "MEAN_MOTION": 14.06977222, "ECCENTRICITY": 0.00272397, "INCLINATION": 98.7862, "RA_OF_ASC_NODE": 22.5649, "ARG_OF_PERICENTER": 313.195, "MEAN_ANOMALY": 105.2388, "EPHEMERIS_TYPE": 0, "CLASSIFICATION_TYPE": "U", "NORAD_CAT_ID": 30542, "ELEMENT_SET_NO": 999, "REV_AT_EPOCH": 97021, "BSTAR": 0.00022455233, "MEAN_MOTION_DOT": 3.33e-06, "MEAN_MOTION_DDOT": 0}, "tle": {"line1": "1 30542U 99025AKG 25354.02380586  .00000333  00000+0  22455-3 0  9999", "line2": "2 30542  98.7862  22.5649 0027239 313.1950 105.2388 14.06977222970215"}}, "geometry": {"type": "Point", "coordinates": [31.77340416056505, -43.59633596952637]}}, {"type": "Feature", "properties": {"norad_id": 30543, "name": "FENGYUN 1C DEB", "group": "fengyun-1c-debris", "lat": -61.407584670040265, "lon": 20.700187257742517, "alt_km": 873.0851798667045, "timestamp": "2025-12-20T18:51:31.991193+00:00", "meta": {"OBJECT_NAME": "FENGYUN 1C DEB", "OBJECT_ID": "1999-025AKH", "EPOCH": "2025-12-20T07:15:14.029344", "MEAN_MOTION": 14.03748528, "ECCENTRICITY": 0.00722546, "INCLINATION": 98.833, "RA_OF_ASC_NODE": 3.6543, "ARG_OF_PERICENTER": 12.6278, "MEAN_ANOMALY": 3.3053, "EPHEMERIS_TYPE": 0, "CLASSIFICATION_TYPE": "U", "NORAD_CAT_ID": 30543, "ELEMENT_SET_NO": 999, "REV_AT_EPOCH": 96611, "BSTAR": 0.00016180455, "MEAN_MOTION_DOT": 2.18e-06, "MEAN_MOTION_DDOT": 0}, "tle": {"line1": "1 30543U 99025AKH 25354.30224571  .00000218  00000+0  16180-3 0  9992", "line2": "2 30543  98.8330   3.6543 0072254  12.6278   3.3053 14.03748528966114"}}, "geometry": {"type": "Point", "coordinates": [20.700187257742517, -61.407584670040265]}}, {"type": "Feature", "properties": {"norad_id": 30545, "name": "FENGYUN 1C DEB", "group": "fengyun-1c-debris", "lat": 48.37650130588993, "lon": -164.39870371585644, "alt_km": 975.1278908042459, "timestamp": "2025-12-20T18:51:31.991202+00:00", "meta": {"OBJECT_NAME": "FENGYUN 1C DEB", "OBJECT_ID": "1999-025AKK", "EPOCH": "2025-12-16T01:55:01.765920", "MEAN_MOTION": 13.20785031, "ECCENTRICITY": 0.04726799, "INCLINATION": 98.9986, "RA_OF_ASC_NODE": 201.8152, "ARG_OF_PERICENTER": 2.8282, "MEAN_ANOMALY": 357.5348, "EPHEMERIS_TYPE": 0, "CLASSIFICATION_TYPE": "U", "NORAD_CAT_ID": 30545, "ELEMENT_SET_NO": 999, "REV_AT_EPOCH": 90974, "BSTAR": 0.00057440201, "MEAN_MOTION_DOT": 3.84e-06, "MEAN_MOTION_DDOT": 0}, "tle": {"line1": "1 30545U 99025AKK 25350.07988155  .00000384  00000+0  57440-3 0  9997", "line2": "2 30545  98.9986 201.8152 0472679   2.8282 357.5348 13.20785031909748"}}, "geometry": {"type": "Point", "coordinates": [-164.39870371585644, 48.37650130588993]}}]}